[{"OBJECT_NAME":"EDISON-1","OBJECT_ID":"2025-009B","EPOCH":"2026-03-09T19:16:13.822464","MEAN_MOTION":15.29042904,"ECCENTRICITY":0.00043285,"INCLINATION":97.4042,"RA_OF_ASC_NODE":151.6286,"ARG_OF_PERICENTER":306.4185,"MEAN_ANOMALY":53.6655,"EPHEMERIS_TYPE":0,"CLASSIFICATION_TYPE":"U","NORAD_CAT_ID":62610,"ELEMENT_SET_NO":999,"REV_AT_EPOCH":6375,"BSTAR":0.00052814963,"MEAN_MOTION_DOT":0.00014835,"MEAN_MOTION_DDOT":0},{"OBJECT_NAME":"STARLINK-33764","OBJECT_ID":"2025-071T","EPOCH":"2026-03-09T11:41:26.787840","MEAN_MOTION":15.30193252,"ECCENTRICITY":0.00012085,"INCLINATION":53.1574,"RA_OF_ASC_NODE":141.1988,"ARG_OF_PERICENTER":82.0317,"MEAN_ANOMALY":278.0821,"EPHEMERIS_TYPE":0,"CLASSIFICATION_TYPE":"U","NORAD_CAT_ID":63510,"ELEMENT_SET_NO":999,"REV_AT_EPOCH":5271,"BSTAR":0.0008423566,"MEAN_MOTION_DOT":0.00024667,"MEAN_MOTION_DDOT":0}]
